OBJECT_NAME,OBJECT_ID,EPOCH,MEAN_MOTION,ECCENTRICITY,INCLINATION,RA_OF_ASC_NODE,ARG_OF_PERICENTER,MEAN_ANOMALY,EPHEMERIS_TYPE,CLASSIFICATION_TYPE,NORAD_CAT_ID,ELEMENT_SET_NO,REV_AT_EPOCH,BSTAR,MEAN_MOTION_DOT,MEAN_MOTION_DDOT
SES-2,2011-049A,2026-07-20T19:33:30.897216,1.00271590,.0002877,0.1421,90.7871,25.4467,28.7190,0,U,37809,999,5430,0,-.196E-5,0
ARABSAT-5C,2011-049B,2026-07-20T20:04:05.462976,1.00274547,.0003764,0.0479,356.6349,142.8496,120.1528,0,U,37810,999,5437,0,.123E-5,0
EUTELSAT 7 WEST A,2011-051A,2026-07-20T19:56:13.718112,1.00271967,.0004883,0.0604,1.7184,127.9047,100.6988,0,U,37816,999,5421,0,-.61E-6,0
QUETZSAT 1,2011-054A,2026-07-20T11:03:10.276704,1.00271667,.00028738,0.0405,273.1075,210.5849,263.3323,0,U,37826,999,5020,0,-.243E-5,0
INTELSAT 18 (IS-18),2011-056A,2026-07-20T19:07:03.432864,1.00271158,.000193,0.0227,287.8627,197.6221,279.8328,0,U,37834,999,5414,0,.52E-6,0
EUTELSAT 16A,2011-057A,2026-07-20T20:02:50.581824,1.00270579,.0005517,0.0467,35.0415,85.5237,134.7440,0,U,37836,999,767,0,.103E-5,0
VIASAT-1,2011-059A,2026-07-20T16:00:13.197024,1.00269388,.0002629,0.0179,49.1331,64.9364,309.3250,0,U,37843,999,4765,0,0,0
ASIASAT 7,2011-069A,2026-07-20T20:28:28.788672,1.00266244,.0001314,0.0571,259.9574,190.6754,260.5975,0,U,37933,999,4519,0,-.333E-5,0
BEIDOU-2 IGSO-5,2011-073A,2026-07-02T17:30:18.330912,1.00270596,.01145273,47.6496,271.3544,222.0502,141.5350,0,U,37948,999,5329,0,-.128E-5,0
LUCH-5A,2011-074B,2026-07-20T14:04:42.246048,1.00274329,.0002812,8.8366,73.3149,60.7630,182.4799,0,U,37951,999,5338,0,-.55E-6,0
NIGCOMSAT 1R,2011-077A,2026-07-20T20:10:28.157088,1.00274164,.000233,0.0383,108.3369,243.5720,291.8129,0,U,38014,999,5329,0,.144E-5,0
WGS F4 (USA 233),2012-003A,2026-07-20T18:40:50.945952,1.00271777,.0000146,0.0200,60.5399,136.0114,110.6164,0,U,38070,999,4448,0,-.215E-5,0
SES-4,2012-007A,2026-07-20T19:58:38.870976,1.00270550,.000241,0.0226,27.2609,96.6933,92.3162,0,U,38087,999,5256,0,-.169E-5,0
BEIDOU-2 G5,2012-008A,2026-07-20T20:24:38.678688,1.00272312,.000721,3.6560,69.4879,270.5713,323.3747,0,U,38091,999,5270,0,.55E-6,0
MUOS-1,2012-009A,2026-07-20T16:04:35.276736,1.00271434,.0056466,5.5423,47.1045,3.6931,28.8375,0,U,38093,999,5278,0,-.131E-5,0
INTELSAT 22 (IS-22),2012-011A,2026-07-20T18:27:21.567168,1.00272128,.000184,0.0237,67.7836,65.9891,153.7072,0,U,38098,999,752,0,-.59E-6,0
APSTAR-7,2012-013A,2026-07-20T20:20:07.089792,1.00271314,.0003134,0.0359,97.6053,29.6049,192.9292,0,U,38107,999,5214,0,-.101E-5,0
YAHSAT 1B,2012-016A,2026-07-20T11:38:36.877920,1.00272005,.00026223,0.0867,89.2691,27.0040,44.2462,0,U,38245,999,4594,0,.125E-5,0
AEHF-2 (USA 235),2012-019A,2026-07-20T19:53:43.955808,1.00271828,.0002149,6.7256,57.2292,66.7697,96.5487,0,U,38254,999,732,0,-.139E-5,0
JCSAT-13,2012-023A,2026-07-20T15:25:46.497792,1.00272221,.0002173,0.0151,61.7609,56.9252,175.1790,0,U,38331,999,5187,0,-.357E-5,0
VINASAT-2,2012-023B,2026-07-20T20:35:58.071264,1.00271805,.000237,0.0143,359.4613,116.4315,263.5690,0,U,38332,999,4699,0,-.329E-5,0
NIMIQ 6,2012-026A,2026-07-20T14:24:24.654240,1.00271361,.0002921,0.0576,263.9349,217.9854,301.4503,0,U,38342,999,5074,0,-.174E-5,0
ZHONGXING-2A,2012-028A,2026-07-20T17:01:02.802144,1.00269005,.0001722,1.5391,83.4572,40.5789,167.9223,0,U,38352,999,5163,0,-.294E-5,0
INTELSAT 19 (IS-19),2012-030A,2026-07-20T19:03:03.817152,1.00272793,.0003103,0.0158,45.0159,74.5363,270.7635,0,U,38356,999,5078,0,-.57E-6,0
ECHOSTAR 17,2012-035A,2026-07-20T10:47:38.598720,1.00271757,.00021677,0.0194,60.8436,56.3274,235.8532,0,U,38551,999,5139,0,-.77E-6,0
METEOSAT-10 (MSG-3),2012-035B,2026-07-20T19:58:21.012960,1.00272616,.0001426,4.7494,60.8541,18.3366,159.0425,0,U,38552,999,5119,0,-.1E-6,0
SES-5,2012-036A,2026-07-20T19:59:43.383264,1.00273131,.0002049,0.0455,319.1649,159.4963,124.8448,0,U,38652,999,4479,0,.34E-6,0
INTELSAT 20 (IS-20),2012-043A,2026-07-20T20:17:52.304928,1.00271572,.0001447,0.0155,78.4165,106.0386,127.1258,0,U,38740,999,5108,0,-.25E-6,0
HYLAS 2,2012-043B,2026-07-20T19:37:38.002080,1.00271719,.0002528,2.5120,80.6624,56.7589,22.9978,0,U,38741,999,5111,0,-.259E-5,0
INTELSAT 21 (IS-21),2012-045A,2026-07-20T19:41:45.106080,1.00271473,.0001808,0.0403,247.8366,241.3862,46.8077,0,U,38749,999,5086,0,-.285E-5,0
ASTRA 2F,2012-051A,2026-07-20T20:42:38.682144,1.00272736,.0003188,0.0743,253.7857,287.4897,96.1644,0,U,38778,999,4147,0,.15E-5,0
GSAT-10,2012-051B,2026-07-20T20:21:59.409792,1.00272720,.0007594,0.0763,263.8454,191.8380,231.4395,0,U,38779,999,5043,0,-.165E-5,0
