SES-2                   
1 37809U 11049A   26201.81494094 -.00000196  00000+0  00000+0 0  9997
2 37809   0.1421  90.7871 0002877  25.4467  28.7190  1.00271590 54305
ARABSAT-5C              
1 37810U 11049B   26201.83617434  .00000123  00000+0  00000+0 0  9995
2 37810   0.0479 356.6349 0003764 142.8496 120.1528  1.00274547 54379
EUTELSAT 7 WEST A       
1 37816U 11051A   26201.83071433 -.00000061  00000+0  00000+0 0  9999
2 37816   0.0604   1.7184 0004883 127.9047 100.6988  1.00271967 54218
QUETZSAT 1              
1 37826U 11054A   26201.46053561 -.00000243  00000+0  00000+0 0  9996
2 37826   0.0405 273.1075 0002873 210.5849 263.3323  1.00271667 50200
INTELSAT 18 (IS-18)     
1 37834U 11056A   26201.79656751  .00000052  00000+0  00000+0 0  9990
2 37834   0.0227 287.8627 0001930 197.6221 279.8328  1.00271158 54147
EUTELSAT 16A            
1 37836U 11057A   26201.83530766  .00000103  00000+0  00000+0 0  9992
2 37836   0.0467  35.0415 0005517  85.5237 134.7440  1.00270579  7676
VIASAT-1                
1 37843U 11059A   26201.66681941  .00000000  00000+0  00000+0 0  9991
2 37843   0.0179  49.1331 0002629  64.9364 309.3250  1.00269388 47657
ASIASAT 7               
1 37933U 11069A   26201.85311098 -.00000333  00000+0  00000+0 0  9996
2 37933   0.0571 259.9574 0001314 190.6754 260.5975  1.00266244 45190
BEIDOU-2 IGSO-5         
1 37948U 11073A   26183.72937883 -.00000128  00000+0  00000+0 0  9990
2 37948  47.6496 271.3544 0114527 222.0502 141.5350  1.00270596 53296
LUCH-5A                 
1 37951U 11074B   26201.58660007 -.00000055  00000+0  00000+0 0  9990
2 37951   8.8366  73.3149 0002812  60.7630 182.4799  1.00274329 53387
NIGCOMSAT 1R            
1 38014U 11077A   26201.84060367  .00000144  00000+0  00000+0 0  9994
2 38014   0.0383 108.3369 0002330 243.5720 291.8129  1.00274164 53299
WGS F4 (USA 233)        
1 38070U 12003A   26201.77836743 -.00000215  00000+0  00000+0 0  9997
2 38070   0.0200  60.5399 0000146 136.0114 110.6164  1.00271777 44482
SES-4                   
1 38087U 12007A   26201.83239434 -.00000169  00000+0  00000+0 0  9998
2 38087   0.0226  27.2609 0002410  96.6933  92.3162  1.00270550 52568
BEIDOU-2 G5             
1 38091U 12008A   26201.85044767  .00000055  00000+0  00000+0 0  9992
2 38091   3.6560  69.4879 0007210 270.5713 323.3747  1.00272312 52702
MUOS-1                  
1 38093U 12009A   26201.66985274 -.00000131  00000+0  00000+0 0  9997
2 38093   5.5423  47.1045 0056466   3.6931  28.8375  1.00271434 52781
INTELSAT 22 (IS-22)     
1 38098U 12011A   26201.76899962 -.00000059  00000+0  00000+0 0  9993
2 38098   0.0237  67.7836 0001840  65.9891 153.7072  1.00272128  7522
APSTAR-7                
1 38107U 12013A   26201.84730428 -.00000101  00000+0  00000+0 0  9994
2 38107   0.0359  97.6053 0003134  29.6049 192.9292  1.00271314 52144
YAHSAT 1B               
1 38245U 12016A   26201.48514905  .00000125  00000+0  00000+0 0  9995
2 38245   0.0867  89.2691 0002622  27.0040  44.2462  1.00272005 45946
AEHF-2 (USA 235)        
1 38254U 12019A   26201.82898097 -.00000139  00000+0  00000+0 0  9999
2 38254   6.7256  57.2292 0002149  66.7697  96.5487  1.00271828  7324
JCSAT-13                
1 38331U 12023A   26201.64289928 -.00000357  00000+0  00000+0 0  9999
2 38331   0.0151  61.7609 0002173  56.9252 175.1790  1.00272221 51876
VINASAT-2               
1 38332U 12023B   26201.85831101 -.00000329  00000+0  00000+0 0  9998
2 38332   0.0143 359.4613 0002370 116.4315 263.5690  1.00271805 46996
NIMIQ 6                 
1 38342U 12026A   26201.60028535 -.00000174  00000+0  00000+0 0  9992
2 38342   0.0576 263.9349 0002921 217.9854 301.4503  1.00271361 50749
ZHONGXING-2A            
1 38352U 12028A   26201.70906021 -.00000294  00000+0  00000+0 0  9994
2 38352   1.5391  83.4572 0001722  40.5789 167.9223  1.00269005 51634
INTELSAT 19 (IS-19)     
1 38356U 12030A   26201.79379418 -.00000057  00000+0  00000+0 0  9991
2 38356   0.0158  45.0159 0003103  74.5363 270.7635  1.00272793 50781
ECHOSTAR 17             
1 38551U 12035A   26201.44975230 -.00000077  00000+0  00000+0 0  9991
2 38551   0.0194  60.8436 0002167  56.3274 235.8532  1.00271757 51394
METEOSAT-10 (MSG-3)     
1 38552U 12035B   26201.83218765 -.00000010  00000+0  00000+0 0  9995
2 38552   4.7494  60.8541 0001426  18.3366 159.0425  1.00272616 51194
SES-5                   
1 38652U 12036A   26201.83314101  .00000034  00000+0  00000+0 0  9993
2 38652   0.0455 319.1649 0002049 159.4963 124.8448  1.00273131 44798
INTELSAT 20 (IS-20)     
1 38740U 12043A   26201.84574427 -.00000025  00000+0  00000+0 0  9990
2 38740   0.0155  78.4165 0001447 106.0386 127.1258  1.00271572 51081
HYLAS 2                 
1 38741U 12043B   26201.81780095 -.00000259  00000+0  00000+0 0  9997
2 38741   2.5120  80.6624 0002528  56.7589  22.9978  1.00271719 51111
INTELSAT 21 (IS-21)     
1 38749U 12045A   26201.82066095 -.00000285  00000+0  00000+0 0  9994
2 38749   0.0403 247.8366 0001808 241.3862  46.8077  1.00271473 50865
ASTRA 2F                
1 38778U 12051A   26201.86294771  .00000150  00000+0  00000+0 0  9991
2 38778   0.0743 253.7857 0003188 287.4897  96.1644  1.00272736 41475
GSAT-10                 
1 38779U 12051B   26201.84860428 -.00000165  00000+0  00000+0 0  9995
2 38779   0.0763 263.8454 0007594 191.8380 231.4395  1.00272720 50439
